NORAD_CAT_ID,OBJECT_NAME,OBJECT_TYPE,EPOCH,MEAN_MOTION,ECCENTRICITY,INCLINATION,RA_OF_ASC_NODE,ARG_OF_PERICENTER,MEAN_ANOMALY,BSTAR,MEAN_MOTION_DOT,MEAN_MOTION_DDOT,TLE_LINE0,TLE_LINE1,TLE_LINE2,SEMIMAJOR_AXIS,PERIOD,APOGEE,PERIGEE,DECAYED
52132.0,STARLINK-3718,PAYLOAD,2022-08-04 06:00:00,15.08842753,0.0002702,53.2158,205.3757,49.3643,178.5268,-0.00075127,-0.00012227,0.0,0 STARLINK-3718,1 52132U 22029AW  22216.25001157 -.00012227  00000-0 -75127-3 0  9993,2 52132  53.2158 205.3757 0002702  49.3643 178.5268 15.08842753 22653,6917.871999999999,95.437,541.606,537.868,0.0
52132.0,STARLINK-3718,PAYLOAD,2022-08-04 14:00:01,15.08856586,0.0002679,53.2154,203.8789,49.3058,190.1723,-0.0020804,-0.00033263,0.0,0 STARLINK-3718,1 52132U 22029AW  22216.58334491 -.00033263  00000-0 -20804-2 0  9993,2 52132  53.2154 203.8789 0002679  49.3058 190.1723 15.08856586  1304,6917.83,95.437,541.548,537.841,0.0
52132.0,STARLINK-3718,PAYLOAD,2022-08-04 22:00:00,15.08830846,0.0002573999999999,53.2154,202.3814,54.3019,196.7804,0.0018085,0.00028605,0.0,0 STARLINK-3718,1 52132U 22029AW  22216.91667824  .00028605  00000-0  18085-2 0  9999,2 52132  53.2154 202.3814 0002574  54.3019 196.7804 15.08830846  1307,6917.908,95.438,541.554,537.993,0.0
52132.0,STARLINK-3718,PAYLOAD,2022-08-05 06:00:02,15.08843348,0.0002764,53.2153,200.8867,51.2889,211.4562,-0.00043952,-7.278e-05,0.0,0 STARLINK-3718,1 52132U 22029AW  22217.25002315 -.00007278  00000-0 -43952-3 0  9992,2 52132  53.2153 200.8867 0002764  51.2889 211.4562 15.08843348 22804,6917.87,95.437,541.6469999999998,537.823,0.0
52132.0,STARLINK-3718,PAYLOAD,2022-08-05 14:00:01,15.08863355,0.000272,53.2149,199.3897,51.4157,222.9224,-0.0022716999999999,-0.00036286,0.0,0 STARLINK-3718,1 52132U 22029AW  22217.58335648 -.00036286  00000-0 -22717-2 0  9992,2 52132  53.2149 199.3897 0002720  51.4157 222.9224 15.08863355  1300,6917.809,95.436,541.556,537.7919999999998,0.0
52132.0,STARLINK-3718,PAYLOAD,2022-08-05 22:00:00,15.08819529,0.0002673,53.2163,197.8908,53.603,232.2886,0.00036646,5.546e-05,0.0,0 STARLINK-3718,1 52132U 22029AW  22217.91667824  .00005546  00000-0  36646-3 0  9993,2 52132  53.2163 197.8908 0002673  53.6030 232.2886 15.08819529  1305,6917.943,95.439,541.6569999999998,537.9590000000002,0.0
52132.0,STARLINK-3718,PAYLOAD,2022-08-06 14:00:01,15.08842727,0.0002699,53.2145,194.9006,51.3367,257.7381,-0.0023531999999999,-0.0003754999999999,0.0,0 STARLINK-3718,1 52132U 22029AW  22218.58334491 -.00037550  00000-0 -23532-2 0  9999,2 52132  53.2145 194.9006 0002699  51.3367 257.7381 15.08842727 23007,6917.871999999999,95.437,541.604,537.87,0.0
52132.0,STARLINK-3718,PAYLOAD,2022-08-06 22:00:00,15.08821425,0.0002657,53.2146,193.4031,56.2489,264.4111,0.0017542,0.00027727,0.0,0 STARLINK-3718,1 52132U 22029AW  22218.91667824  .00027727  00000-0  17542-2 0  9992,2 52132  53.2146 193.4031 0002657  56.2489 264.4111 15.08821425  1300,6917.937,95.439,541.64,537.964,0.0
52132.0,STARLINK-3718,PAYLOAD,2022-08-07 04:00:00,15.08837134,0.0002804,53.2145,192.2823,53.3844,185.9621,-0.001133,-0.00018275,0.0,0 STARLINK-3718,1 52132U 22029AW  22219.16667824 -.00018275  00000-0 -11330-2 0  9999,2 52132  53.2145 192.2823 0002804  53.3844 185.9621 15.08837134 23099,6917.889,95.438,541.694,537.814,0.0
52132.0,STARLINK-3718,PAYLOAD,2022-08-07 14:00:01,15.08852202,0.0002798,53.2145,190.4112,53.0857,290.7381,-0.0022361,-0.00035715,0.0,0 STARLINK-3718,1 52132U 22029AW  22219.58334491 -.00035715  00000-0 -22361-2 0  9990,2 52132  53.2145 190.4112 0002798  53.0857 290.7381 15.08852202  1304,6917.843000000003,95.437,541.644,537.7719999999998,0.0
52132.0,STARLINK-3718,PAYLOAD,2022-08-07 20:00:01,15.08821603,0.0002742,53.2145,189.2878,56.764,205.766,0.0026848,0.0004267999999999,0.0,0 STARLINK-3718,1 52132U 22029AW  22219.83334491  .00042680  00000-0  26848-2 0  9999,2 52132  53.2145 189.2878 0002742  56.7640 205.7660 15.08821603 23196,6917.937,95.439,541.6990000000002,537.905,0.0
52132.0,STARLINK-3718,PAYLOAD,2022-08-07 22:00:00,15.08836927,0.0002767,53.2148,188.9139,57.6237,297.7982,0.0015803,0.00024951,0.0,0 STARLINK-3718,1 52132U 22029AW  22219.91667824  .00024951  00000-0  15803-2 0  9997,2 52132  53.2148 188.9139 0002767  57.6237 297.7982 15.08836927  1306,6917.89,95.438,541.669,537.841,0.0
52132.0,STARLINK-3718,PAYLOAD,2022-08-08 14:00:01,15.08880076,0.0002847,53.2148,185.9217,55.0501,323.6492,-0.0024435,-0.00039012,0.0,0 STARLINK-3718,1 52132U 22029AW  22220.58335648 -.00039012  00000-0 -24435-2 0  9995,2 52132  53.2148 185.9217 0002847  55.0501 323.6492 15.08880076 23308,6917.7580000000025,95.435,541.592,537.653,0.0
52132.0,STARLINK-3718,PAYLOAD,2022-08-08 22:00:00,15.08857735,0.0002747,53.2152,184.4246,58.5626,331.7056,2.8408000000000013e-05,1.64e-06,0.0,0 STARLINK-3718,1 52132U 22029AW  22220.91667824  .00000164  00000-0  28408-4 0  9996,2 52132  53.2152 184.4246 0002747  58.5626 331.7056 15.08857735  1302,6917.826,95.436,541.592,537.7909999999998,0.0
52132.0,STARLINK-3718,PAYLOAD,2022-08-09 14:00:01,15.08844392,0.0002688,53.2154,181.4322,54.4592,359.0153,-0.0023846,-0.00038046,0.0,0 STARLINK-3718,1 52132U 22029AW  22221.58334491 -.00038046  00000-0 -23846-2 0  9992,2 52132  53.2154 181.4322 0002688  54.4592 359.0153 15.08844392  1303,6917.8669999999975,95.437,541.591,537.872,0.0
52132.0,STARLINK-3718,PAYLOAD,2022-08-09 22:00:00,15.0882538,0.0002596,53.2158,179.9354,57.7009,7.3598,-0.00054386,-8.931e-05,0.0,0 STARLINK-3718,1 52132U 22029AW  22221.91667824 -.00008931  00000-0 -54386-3 0  9992,2 52132  53.2158 179.9354 0002596  57.7009   7.3598 15.08825380 23509,6917.925,95.438,541.586,537.994,0.0
52132.0,STARLINK-3718,PAYLOAD,2022-08-10 14:00:01,15.08831393,0.0002617,53.2159,176.9431,55.9765,32.2241,-0.0011679,-0.00018824,0.0,0 STARLINK-3718,1 52132U 22029AW  22222.58334491 -.00018824  00000-0 -11679-2 0  9996,2 52132  53.2159 176.9431 0002617  55.9765  32.2241 15.08831393  1303,6917.906999999997,95.438,541.582,537.961,0.0
52132.0,STARLINK-3718,PAYLOAD,2022-08-10 22:00:00,15.08834408,0.000259,53.2162,175.4465,59.4161,40.357,0.00029554,4.418e-05,0.0,0 STARLINK-3718,1 52132U 22029AW  22222.91667824  .00004418  00000-0  29554-3 0  9996,2 52132  53.2162 175.4465 0002590  59.4161  40.3570 15.08834408  1302,6917.897,95.438,541.554,537.971,0.0
52132.0,STARLINK-3718,PAYLOAD,2022-08-11 14:00:01,15.08844442,0.000261,53.2162,172.4542,58.6977,64.2511,-0.00078569,-0.00012773,0.0,0 STARLINK-3718,1 52132U 22029AW  22223.58334491 -.00012773  00000-0 -78569-3 0  9996,2 52132  53.2162 172.4542 0002610  58.6977  64.2511 15.08844442  1303,6917.8669999999975,95.437,541.5369999999998,537.9259999999998,0.0
52132.0,STARLINK-3718,PAYLOAD,2022-08-12 06:00:00,15.08845077,0.0002699,53.2163,169.4631,57.3867,88.7726,0.00051475,7.915e-05,0.0,0 STARLINK-3718,1 52132U 22029AW  22224.25001157  .00007915  00000-0  51475-3 0  9998,2 52132  53.2163 169.4631 0002699  57.3867  88.7726 15.08845077 23858,6917.865,95.437,541.597,537.863,0.0
52132.0,STARLINK-3718,PAYLOAD,2022-08-12 14:00:01,15.08843426,0.000252,53.2161,167.9652,60.4059,97.3691,-0.00040759,-6.77e-05,0.0,0 STARLINK-3718,1 52132U 22029AW  22224.58334491 -.00006770  00000-0 -40759-3 0  9997,2 52132  53.2161 167.9652 0002520  60.4059  97.3691 15.08843426  1302,6917.87,95.437,541.4780000000002,537.992,0.0
52132.0,STARLINK-3718,PAYLOAD,2022-08-12 22:00:01,15.08856784,0.0002531,53.2164,166.46900000000005,62.9602,106.4658,-0.00051716,-8.514e-05,0.0,0 STARLINK-3718,1 52132U 22029AW  22224.91668981 -.00008514  00000-0 -51716-3 0  9991,2 52132  53.2164 166.4690 0002531  62.9602 106.4658 15.08856784  1300,6917.829000000002,95.436,541.445,537.943,0.0
52132.0,STARLINK-3718,PAYLOAD,2022-08-13 04:00:00,15.08854269,0.0002607,53.2161,165.3481,58.7224,29.34800000000001,-0.0027716999999999,-0.0004415,0.0,0 STARLINK-3718,1 52132U 22029AW  22225.16667824 -.00044150  00000-0 -27717-2 0  9993,2 52132  53.2161 165.3481 0002607  58.7224  29.3480 15.08854269 23991,6917.837,95.437,541.505,537.898,0.0
52132.0,STARLINK-3718,PAYLOAD,2022-08-13 14:00:01,15.08809294,0.000237,53.216,163.4763,59.5705,132.99200000000002,-0.00087121,-0.00014116,0.0,0 STARLINK-3718,1 52132U 22029AW  22225.58334491 -.00014116  00000-0 -87121-3 0  9995,2 52132  53.2160 163.4763 0002370  59.5705 132.9920 15.08809294  1301,6917.974,95.439,541.479,538.2,0.0
52132.0,STARLINK-3718,PAYLOAD,2022-08-13 22:00:00,15.08819327,0.0002411999999999,53.2161,161.9803,62.0286,142.0812,-0.00067497,-0.00011009,0.0,0 STARLINK-3718,1 52132U 22029AW  22225.91667824 -.00011009  00000-0 -67497-3 0  9993,2 52132  53.2161 161.9803 0002412  62.0286 142.0812 15.08819327  1300,6917.944,95.439,541.477,538.14,0.0
52132.0,STARLINK-3718,PAYLOAD,2022-08-14 14:00:01,15.08818343,0.0002414,53.2161,158.9874,60.7631,166.4859,0.00089688,0.00014006,0.0,0 STARLINK-3718,1 52132U 22029AW  22226.58334491  .00014006  00000-0  89688-3 0  9992,2 52132  53.2161 158.9874 0002414  60.7631 166.4859 15.08818343  1303,6917.946999999999,95.439,541.482,538.1419999999998,0.0
52132.0,STARLINK-3718,PAYLOAD,2022-08-14 22:00:00,15.08846961,0.0002499,53.2161,157.4914,63.0079,175.8123,-0.00068159,-0.00011122,0.0,0 STARLINK-3718,1 52132U 22029AW  22226.91667824 -.00011122  00000-0 -68159-3 0  9996,2 52132  53.2161 157.4914 0002499  63.0079 175.8123 15.08846961 24262,6917.859,95.437,541.453,537.995,0.0
52132.0,STARLINK-3718,PAYLOAD,2022-08-15 14:00:01,15.08841022,0.0002481,53.2162,154.4983,62.2024,199.8135,0.00080871,0.00012606,0.0,0 STARLINK-3718,1 52132U 22029AW  22227.58334491  .00012606  00000-0  80871-3 0  9992,2 52132  53.2162 154.4983 0002481  62.2024 199.8135 15.08841022  1300,6917.877,95.437,541.4590000000002,538.026,0.0
52132.0,STARLINK-3718,PAYLOAD,2022-08-15 22:00:00,15.08862925,0.0002503,53.2162,153.0023,62.9712,210.645,-0.0030237,-0.00048122,0.0,0 STARLINK-3718,1 52132U 22029AW  22227.91667824 -.00048122  00000-0 -30237-2 0  9992,2 52132  53.2162 153.0023 0002503  62.9712 210.6450 15.08862925  1303,6917.81,95.436,541.4069999999998,537.944,0.0
